{
  "type": "FeatureCollection",
  "features": [
    {
      "type": "Feature",
      "properties": {
        "norad_id": 64903,
        "name": "CO3D 1",
        "group": "resource",
        "lat": -17.397788501095373,
        "lon": -105.67482555965964,
        "alt_km": 510.7187547532685,
        "timestamp": "2025-12-26T14:28:47.347218+00:00",
        "meta_object_name": "CO3D 1",
        "meta_object_id": "2025-156E",
        "meta_epoch": "2025-12-26T07:17:42.253728",
        "meta_mean_motion": 15.20196253,
        "meta_eccentricity": 8.632e-05,
        "meta_inclination": 97.4339,
        "meta_ra_of_asc_node": 76.3749,
        "meta_arg_of_pericenter": 60.5946,
        "meta_mean_anomaly": 299.5375,
        "meta_ephemeris_type": 0,
        "meta_classification_type": "U",
        "meta_norad_cat_id": 64903,
        "meta_element_set_no": 999,
        "meta_rev_at_epoch": 2326,
        "meta_bstar": 0.00029747972,
        "meta_mean_motion_dot": 6.377e-05,
        "meta_mean_motion_ddot": 0,
        "tle_line1": "1 64903U 25156E   25360.30396127  .00006377  00000+0  29748-3 0  9993",
        "tle_line2": "2 64903  97.4339  76.3749 0000863  60.5946 299.5375 15.20196253 23269"
      },
      "geometry": {
        "type": "Point",
        "coordinates": [
          -105.67482555965964,
          -17.397788501095373
        ]
      }
    },
    {
      "type": "Feature",
      "properties": {
        "norad_id": 66514,
        "name": "SENTINEL-6B",
        "group": "resource",
        "lat": -51.510108812196,
        "lon": 99.63954998743792,
        "alt_km": 1338.5563967172075,
        "timestamp": "2025-12-26T14:28:47.347228+00:00",
        "meta_object_name": "SENTINEL-6B",
        "meta_object_id": "2025-264A",
        "meta_epoch": "2025-12-25T18:10:28.373376",
        "meta_mean_motion": 12.80929561,
        "meta_eccentricity": 0.00079022,
        "meta_inclination": 66.0399,
        "meta_ra_of_asc_node": 135.3964,
        "meta_arg_of_pericenter": 269.9783,
        "meta_mean_anomaly": 90.0326,
        "meta_ephemeris_type": 0,
        "meta_classification_type": "U",
        "meta_norad_cat_id": 66514,
        "meta_element_set_no": 999,
        "meta_rev_at_epoch": 495,
        "meta_bstar": 6.3134768e-05,
        "meta_mean_motion_dot": -4.6e-07,
        "meta_mean_motion_ddot": 0,
        "tle_line1": "1 66514U 25264A   25359.75727284 -.00000046  00000+0  63135-4 0  9999",
        "tle_line2": "2 66514  66.0399 135.3964 0007902 269.9783  90.0326 12.80929561  4951"
      },
      "geometry": {
        "type": "Point",
        "coordinates": [
          99.63954998743792,
          -51.510108812196
        ]
      }
    }
  ]
}